area,state,city,zipcode
ATLANTIC,PA,ALBION,16475
ATLANTIC,PA,BETHLEHEM,18003
ATLANTIC,PA,BLUE BELL,19424
ATLANTIC,PA,BOYERS,16016
ATLANTIC,PA,CAMP HILL,17089
ATLANTIC,PA,CONSHOHOCKEN,19429
ATLANTIC,PA,CRESSON,16699
ATLANTIC,PA,DANVILLE,17822
ATLANTIC,PA,EDINBORO,16444
ATLANTIC,PA,EMMAUS,18098
ATLANTIC,PA,ERIE,16522
ATLANTIC,PA,FORT WASHINGTON,19048
ATLANTIC,PA,FRACKVILLE,17932
ATLANTIC,PA,GLEN MILLS,19339
ATLANTIC,PA,GREENSBURG,15605
ATLANTIC,PA,HANOVER,17332
ATLANTIC,PA,HARLEYSVILLE,19441
ATLANTIC,PA,HARRISBURG,17107
ATLANTIC,PA,HOLMES,19098
ATLANTIC,PA,HOUTZDALE,16698
ATLANTIC,PA,HUNTINGDON,16654
ATLANTIC,PA,INDIANA,15705
ATLANTIC,PA,LANCASTER,17573
ATLANTIC,PA,MEADVILLE,16388
ATLANTIC,PA,MEDIA,19091
ATLANTIC,PA,NEW KENSINGTON,15069
ATLANTIC,PA,NEW WILMINGTON,16172
ATLANTIC,PA,NORTH WALES,19455
ATLANTIC,PA,OLYPHANT,18448
ATLANTIC,PA,PEACH GLEN,17375
ATLANTIC,PA,PHILADELPHIA,19092
ATLANTIC,PA,PITTSBURGH,15250
ATLANTIC,PA,SCRANTON,18540
ATLANTIC,PA,SOMERSET,15510
ATLANTIC,PA,VALLEY FORGE,19493
ATLANTIC,PA,WARMINSTER,18991
ATLANTIC,PA,WEST CHESTER,19383
ATLANTIC,PA,WEXFORD,15096
ATLANTIC,PA,WILKES BARRE,18762
ATLANTIC,PA,WILLIAMSPORT,17705