area,state,city,zipcode
WESTPAC,CA,ANAHEIM,92850
WESTPAC,CA,BERKELEY,94720
WESTPAC,CA,BURBANK,91521
WESTPAC,CA,CARSON,90747
WESTPAC,CA,CHICO,95929
WESTPAC,CA,CONCORD,94529
WESTPAC,CA,CRESCENT CITY,95532
WESTPAC,CA,EDWARDS,93524
WESTPAC,CA,EL MONTE,91735
WESTPAC,CA,FOLSOM,95671
WESTPAC,CA,FRESNO,93724
WESTPAC,CA,GOLETA,93106
WESTPAC,CA,IRVINE,92697
WESTPAC,CA,LA MIRADA,90639
WESTPAC,CA,LAGUNA HILLS,92698
WESTPAC,CA,LEMOORE,93246
WESTPAC,CA,LOMA LINDA,92350
WESTPAC,CA,LONG BEACH,90840
WESTPAC,CA,LOS ANGELES,90074
WESTPAC,CA,MALIBU,90263
WESTPAC,CA,MODESTO,95397
WESTPAC,CA,MONTEREY PARK,91756
WESTPAC,CA,NOVATO,94998
WESTPAC,CA,OAKLAND,94622
WESTPAC,CA,OXNARD,93042
WESTPAC,CA,PALMDALE,93599
WESTPAC,CA,PASADENA,91110
WESTPAC,CA,PERRIS,92599
WESTPAC,CA,RESEDA,91330
WESTPAC,CA,RIVERSIDE,92521
WESTPAC,CA,ROHNERT PARK,94926
WESTPAC,CA,ROSEMEAD,91771
WESTPAC,CA,SACRAMENTO,94204
WESTPAC,CA,SAN BERNARDINO,92415
WESTPAC,CA,SAN DIEGO,92092
WESTPAC,CA,SAN FRANCISCO,94137
WESTPAC,CA,SAN JOSE,95190
WESTPAC,CA,SAN LUIS OBISPO,93408
WESTPAC,CA,SAN MARCOS,92096
WESTPAC,CA,SAN MATEO,94497
WESTPAC,CA,SANTA CLARA,95053
WESTPAC,CA,SHERMAN OAKS,91495
WESTPAC,CA,SIMI VALLEY,93064
WESTPAC,CA,STOCKTON,95211
WESTPAC,CA,TECATE,91987
WESTPAC,CA,VAN NUYS,91470
WESTPAC,CA,VENTURA,93009
WESTPAC,CA,WEST SACRAMENTO,94203
WESTPAC,CA,WOODLAND HILLS,91371